TEVEL2-2                
1 63219U 25052K   26068.64848259  .00020339  00000+0  69428-3 0  9991
2 63219  97.3987 324.7700 0004693 105.7930 254.3828 15.30343745 54855
STARLINK-35310          
1 66183U 25243G   26068.71237396  .00015942  00000+0  54926-3 0  9999
2 66183  53.1576 245.4025 0000850 101.4855 258.6242 15.30197414 20659
